<?xml version="1.0" encoding="UTF-8"?>
<ndm xmlns:xsi="http://www.w3.org/2001/XMLSchema-instance" xsi:noNamespaceSchemaLocation="https://sanaregistry.org/r/ndmxml_unqualified/ndmxml-2.0.0-master-2.0.xsd">
<omm id="CCSDS_OMM_VERS" version="2.0">
<header><CREATION_DATE/><ORIGINATOR/></header><body><segment><metadata><OBJECT_NAME>IRIDIUM 36</OBJECT_NAME><OBJECT_ID>1997-056C</OBJECT_ID><CENTER_NAME>EARTH</CENTER_NAME><REF_FRAME>TEME</REF_FRAME><TIME_SYSTEM>UTC</TIME_SYSTEM><MEAN_ELEMENT_THEORY>SGP4</MEAN_ELEMENT_THEORY></metadata><data><meanElements><EPOCH>2024-07-09T01:26:40.423776</EPOCH><MEAN_MOTION>14.36880030</MEAN_MOTION><ECCENTRICITY>.0002274</ECCENTRICITY><INCLINATION>86.3981</INCLINATION><RA_OF_ASC_NODE>317.1092</RA_OF_ASC_NODE><ARG_OF_PERICENTER>90.1499</ARG_OF_PERICENTER><MEAN_ANOMALY>269.9959</MEAN_ANOMALY></meanElements><tleParameters><EPHEMERIS_TYPE>0</EPHEMERIS_TYPE><CLASSIFICATION_TYPE>U</CLASSIFICATION_TYPE><NORAD_CAT_ID>24967</NORAD_CAT_ID><ELEMENT_SET_NO>999</ELEMENT_SET_NO><REV_AT_EPOCH>40293</REV_AT_EPOCH><BSTAR>.22909E-3</BSTAR><MEAN_MOTION_DOT>.697E-5</MEAN_MOTION_DOT><MEAN_MOTION_DDOT>0</MEAN_MOTION_DDOT></tleParameters></data></segment></body></omm>
<omm id="CCSDS_OMM_VERS" version="2.0">
<header><CREATION_DATE/><ORIGINATOR/></header><body><segment><metadata><OBJECT_NAME>IRIDIUM 39</OBJECT_NAME><OBJECT_ID>1997-069D</OBJECT_ID><CENTER_NAME>EARTH</CENTER_NAME><REF_FRAME>TEME</REF_FRAME><TIME_SYSTEM>UTC</TIME_SYSTEM><MEAN_ELEMENT_THEORY>SGP4</MEAN_ELEMENT_THEORY></metadata><data><meanElements><EPOCH>2024-07-09T12:52:48.451296</EPOCH><MEAN_MOTION>14.48049507</MEAN_MOTION><ECCENTRICITY>.0018742</ECCENTRICITY><INCLINATION>86.3928</INCLINATION><RA_OF_ASC_NODE>357.9832</RA_OF_ASC_NODE><ARG_OF_PERICENTER>16.8399</ARG_OF_PERICENTER><MEAN_ANOMALY>343.3423</MEAN_ANOMALY></meanElements><tleParameters><EPHEMERIS_TYPE>0</EPHEMERIS_TYPE><CLASSIFICATION_TYPE>U</CLASSIFICATION_TYPE><NORAD_CAT_ID>25042</NORAD_CAT_ID><ELEMENT_SET_NO>999</ELEMENT_SET_NO><REV_AT_EPOCH>39961</REV_AT_EPOCH><BSTAR>.23838E-3</BSTAR><MEAN_MOTION_DOT>.908E-5</MEAN_MOTION_DOT><MEAN_MOTION_DDOT>0</MEAN_MOTION_DDOT></tleParameters></data></segment></body></omm>
<omm id="CCSDS_OMM_VERS" version="2.0">
<header><CREATION_DATE/><ORIGINATOR/></header><body><segment><metadata><OBJECT_NAME>IRIDIUM 38</OBJECT_NAME><OBJECT_ID>1997-069E</OBJECT_ID><CENTER_NAME>EARTH</CENTER_NAME><REF_FRAME>TEME</REF_FRAME><TIME_SYSTEM>UTC</TIME_SYSTEM><MEAN_ELEMENT_THEORY>SGP4</MEAN_ELEMENT_THEORY></metadata><data><meanElements><EPOCH>2024-07-08T22:07:07.095360</EPOCH><MEAN_MOTION>14.37326157</MEAN_MOTION><ECCENTRICITY>.0003466</ECCENTRICITY><INCLINATION>86.3960</INCLINATION><RA_OF_ASC_NODE>17.5280</RA_OF_ASC_NODE><ARG_OF_PERICENTER>114.9965</ARG_OF_PERICENTER><MEAN_ANOMALY>245.1593</MEAN_ANOMALY></meanElements><tleParameters><EPHEMERIS_TYPE>0</EPHEMERIS_TYPE><CLASSIFICATION_TYPE>U</CLASSIFICATION_TYPE><NORAD_CAT_ID>25043</NORAD_CAT_ID><ELEMENT_SET_NO>999</ELEMENT_SET_NO><REV_AT_EPOCH>39663</REV_AT_EPOCH><BSTAR>.20055E-3</BSTAR><MEAN_MOTION_DOT>.618E-5</MEAN_MOTION_DOT><MEAN_MOTION_DDOT>0</MEAN_MOTION_DDOT></tleParameters></data></segment></body></omm>
<omm id="CCSDS_OMM_VERS" version="2.0">
<header><CREATION_DATE/><ORIGINATOR/></header><body><segment><metadata><OBJECT_NAME>IRIDIUM 42</OBJECT_NAME><OBJECT_ID>1997-077A</OBJECT_ID><CENTER_NAME>EARTH</CENTER_NAME><REF_FRAME>TEME</REF_FRAME><TIME_SYSTEM>UTC</TIME_SYSTEM><MEAN_ELEMENT_THEORY>SGP4</MEAN_ELEMENT_THEORY></metadata><data><meanElements><EPOCH>2024-07-09T01:40:41.514816</EPOCH><MEAN_MOTION>14.35620050</MEAN_MOTION><ECCENTRICITY>.0002376</ECCENTRICITY><INCLINATION>86.3960</INCLINATION><RA_OF_ASC_NODE>23.2118</RA_OF_ASC_NODE><ARG_OF_PERICENTER>103.5861</ARG_OF_PERICENTER><MEAN_ANOMALY>256.5600</MEAN_ANOMALY></meanElements><tleParameters><EPHEMERIS_TYPE>0</EPHEMERIS_TYPE><CLASSIFICATION_TYPE>U</CLASSIFICATION_TYPE><NORAD_CAT_ID>25077</NORAD_CAT_ID><ELEMENT_SET_NO>999</ELEMENT_SET_NO><REV_AT_EPOCH>39195</REV_AT_EPOCH><BSTAR>.18744E-3</BSTAR><MEAN_MOTION_DOT>.56E-5</MEAN_MOTION_DOT><MEAN_MOTION_DDOT>0</MEAN_MOTION_DDOT></tleParameters></data></segment></body></omm>
<omm id="CCSDS_OMM_VERS" version="2.0">
<header><CREATION_DATE/><ORIGINATOR/></header><body><segment><metadata><OBJECT_NAME>IRIDIUM 44</OBJECT_NAME><OBJECT_ID>1997-077B</OBJECT_ID><CENTER_NAME>EARTH</CENTER_NAME><REF_FRAME>TEME</REF_FRAME><TIME_SYSTEM>UTC</TIME_SYSTEM><MEAN_ELEMENT_THEORY>SGP4</MEAN_ELEMENT_THEORY></metadata><data><meanElements><EPOCH>2024-07-08T21:39:39.973536</EPOCH><MEAN_MOTION>14.39465825</MEAN_MOTION><ECCENTRICITY>.000395</ECCENTRICITY><INCLINATION>86.3963</INCLINATION><RA_OF_ASC_NODE>6.1324</RA_OF_ASC_NODE><ARG_OF_PERICENTER>83.4193</ARG_OF_PERICENTER><MEAN_ANOMALY>276.7455</MEAN_ANOMALY></meanElements><tleParameters><EPHEMERIS_TYPE>0</EPHEMERIS_TYPE><CLASSIFICATION_TYPE>U</CLASSIFICATION_TYPE><NORAD_CAT_ID>25078</NORAD_CAT_ID><ELEMENT_SET_NO>999</ELEMENT_SET_NO><REV_AT_EPOCH>39430</REV_AT_EPOCH><BSTAR>.20301E-3</BSTAR><MEAN_MOTION_DOT>.652E-5</MEAN_MOTION_DOT><MEAN_MOTION_DDOT>0</MEAN_MOTION_DDOT></tleParameters></data></segment></body></omm>
<omm id="CCSDS_OMM_VERS" version="2.0">
<header><CREATION_DATE/><ORIGINATOR/></header><body><segment><metadata><OBJECT_NAME>IRIDIUM 45</OBJECT_NAME><OBJECT_ID>1997-082A</OBJECT_ID><CENTER_NAME>EARTH</CENTER_NAME><REF_FRAME>TEME</REF_FRAME><TIME_SYSTEM>UTC</TIME_SYSTEM><MEAN_ELEMENT_THEORY>SGP4</MEAN_ELEMENT_THEORY></metadata><data><meanElements><EPOCH>2024-07-08T18:42:32.197248</EPOCH><MEAN_MOTION>15.03915380</MEAN_MOTION><ECCENTRICITY>.0158983</ECCENTRICITY><INCLINATION>86.3720</INCLINATION><RA_OF_ASC_NODE>212.1099</RA_OF_ASC_NODE><ARG_OF_PERICENTER>159.8151</ARG_OF_PERICENTER><MEAN_ANOMALY>200.9469</MEAN_ANOMALY></meanElements><tleParameters><EPHEMERIS_TYPE>0</EPHEMERIS_TYPE><CLASSIFICATION_TYPE>U</CLASSIFICATION_TYPE><NORAD_CAT_ID>25104</NORAD_CAT_ID><ELEMENT_SET_NO>999</ELEMENT_SET_NO><REV_AT_EPOCH>40010</REV_AT_EPOCH><BSTAR>.68335E-3</BSTAR><MEAN_MOTION_DOT>.12521E-3</MEAN_MOTION_DOT><MEAN_MOTION_DDOT>0</MEAN_MOTION_DDOT></tleParameters></data></segment></body></omm>
<omm id="CCSDS_OMM_VERS" version="2.0">
<header><CREATION_DATE/><ORIGINATOR/></header><body><segment><metadata><OBJECT_NAME>IRIDIUM 24</OBJECT_NAME><OBJECT_ID>1997-082B</OBJECT_ID><CENTER_NAME>EARTH</CENTER_NAME><REF_FRAME>TEME</REF_FRAME><TIME_SYSTEM>UTC</TIME_SYSTEM><MEAN_ELEMENT_THEORY>SGP4</MEAN_ELEMENT_THEORY></metadata><data><meanElements><EPOCH>2024-07-08T19:48:06.882624</EPOCH><MEAN_MOTION>14.41251577</MEAN_MOTION><ECCENTRICITY>.0013381</ECCENTRICITY><INCLINATION>86.3909</INCLINATION><RA_OF_ASC_NODE>225.7127</RA_OF_ASC_NODE><ARG_OF_PERICENTER>125.9743</ARG_OF_PERICENTER><MEAN_ANOMALY>234.2699</MEAN_ANOMALY></meanElements><tleParameters><EPHEMERIS_TYPE>0</EPHEMERIS_TYPE><CLASSIFICATION_TYPE>U</CLASSIFICATION_TYPE><NORAD_CAT_ID>25105</NORAD_CAT_ID><ELEMENT_SET_NO>999</ELEMENT_SET_NO><REV_AT_EPOCH>39374</REV_AT_EPOCH><BSTAR>.18465E-3</BSTAR><MEAN_MOTION_DOT>.617E-5</MEAN_MOTION_DOT><MEAN_MOTION_DDOT>0</MEAN_MOTION_DDOT></tleParameters></data></segment></body></omm>
<omm id="CCSDS_OMM_VERS" version="2.0">
<header><CREATION_DATE/><ORIGINATOR/></header><body><segment><metadata><OBJECT_NAME>IRIDIUM 51</OBJECT_NAME><OBJECT_ID>1998-018A</OBJECT_ID><CENTER_NAME>EARTH</CENTER_NAME><REF_FRAME>TEME</REF_FRAME><TIME_SYSTEM>UTC</TIME_SYSTEM><MEAN_ELEMENT_THEORY>SGP4</MEAN_ELEMENT_THEORY></metadata><data><meanElements><EPOCH>2024-07-08T13:25:41.617344</EPOCH><MEAN_MOTION>15.12233643</MEAN_MOTION><ECCENTRICITY>.0145383</ECCENTRICITY><INCLINATION>86.3948</INCLINATION><RA_OF_ASC_NODE>221.9671</RA_OF_ASC_NODE><ARG_OF_PERICENTER>104.1754</ARG_OF_PERICENTER><MEAN_ANOMALY>257.5687</MEAN_ANOMALY></meanElements><tleParameters><EPHEMERIS_TYPE>0</EPHEMERIS_TYPE><CLASSIFICATION_TYPE>U</CLASSIFICATION_TYPE><NORAD_CAT_ID>25262</NORAD_CAT_ID><ELEMENT_SET_NO>999</ELEMENT_SET_NO><REV_AT_EPOCH>39464</REV_AT_EPOCH><BSTAR>.87182E-3</BSTAR><MEAN_MOTION_DOT>.19587E-3</MEAN_MOTION_DOT><MEAN_MOTION_DDOT>0</MEAN_MOTION_DDOT></tleParameters></data></segment></body></omm>

</ndm>
